[
    {
        "Altitude(m)": 576639.8019579028,
        "Argument of Periapsis(deg)": -0.007534386927657468,
        "Eccentricity": 0.0,
        "Inclination(deg)": 97.0,
        "Latitude(deg)": 78.8445682580502,
        "Longitude(deg)": -92.49923780673204,
        "Mean Anomaly(deg)": 98.7806477563959,
        "RAAN(deg)": 150.00198235120618,
        "Satellite Name": "Starlink Shell 3 1888",
        "Satellite Number": 1888,
        "Semi-Major Axis(m)": 6938478.169268562,
        "Time(s)": 190
    },
    {
        "Altitude(m)": 576591.7353423836,
        "Argument of Periapsis(deg)": -0.007930933608060494,
        "Eccentricity": 0.0,
        "Inclination(deg)": 97.0,
        "Latitude(deg)": 78.35281067483051,
        "Longitude(deg)": -94.47362434229449,
        "Mean Anomaly(deg)": 99.40612395410088,
        "RAAN(deg)": 150.00208668548018,
        "Satellite Name": "Starlink Shell 3 1888",
        "Satellite Number": 1888,
        "Semi-Major Axis(m)": 6938478.169268562,
        "Time(s)": 200
    },
    {
        "Altitude(m)": 576540.5031771933,
        "Argument of Periapsis(deg)": -0.008327480288463517,
        "Eccentricity": 0.0,
        "Inclination(deg)": 97.0,
        "Latitude(deg)": 77.84917930183094,
        "Longitude(deg)": -96.29180023958375,
        "Mean Anomaly(deg)": 100.03160015180592,
        "RAAN(deg)": 150.0021910197542,
        "Satellite Name": "Starlink Shell 3 1888",
        "Satellite Number": 1888,
        "Semi-Major Axis(m)": 6938478.169268562,
        "Time(s)": 210
    },
    {
        "Altitude(m)": 576486.1344540815,
        "Argument of Periapsis(deg)": -0.008724026968866542,
        "Eccentricity": 0.0,
        "Inclination(deg)": 97.0,
        "Latitude(deg)": 77.33508579132177,
        "Longitude(deg)": -97.96931047761366,
        "Mean Anomaly(deg)": 100.65707634951096,
        "RAAN(deg)": 150.0022953540282,
        "Satellite Name": "Starlink Shell 3 1888",
        "Satellite Number": 1888,
        "Semi-Major Axis(m)": 6938478.169268562,
        "Time(s)": 220
    },
    {
        "Altitude(m)": 576428.6599535258,
        "Argument of Periapsis(deg)": -0.009120573649269567,
        "Eccentricity": 0.0,
        "Inclination(deg)": 97.0,
        "Latitude(deg)": 76.81174869697001,
        "Longitude(deg)": -99.52019824313459,
        "Mean Anomaly(deg)": 101.28255254721596,
        "RAAN(deg)": 150.0023996883022,
        "Satellite Name": "Starlink Shell 3 1888",
        "Satellite Number": 1888,
        "Semi-Major Axis(m)": 6938478.169268562,
        "Time(s)": 230
    },
    {
        "Altitude(m)": 576368.1122302463,
        "Argument of Periapsis(deg)": -0.009517120329672592,
        "Eccentricity": 0.0,
        "Inclination(deg)": 97.0,
        "Latitude(deg)": 76.28022081866499,
        "Longitude(deg)": -100.95706831994931,
        "Mean Anomaly(deg)": 101.9080287449211,
        "RAAN(deg)": 150.0025040225762,
        "Satellite Name": "Starlink Shell 3 1888",
        "Satellite Number": 1888,
        "Semi-Major Axis(m)": 6938478.169268562,
        "Time(s)": 240
    },
    {
        "Altitude(m)": 576304.525597884,
        "Argument of Periapsis(deg)": -0.009913667010075618,
        "Eccentricity": 0.0,
        "Inclination(deg)": 97.0,
        "Latitude(deg)": 75.74141312716542,
        "Longitude(deg)": -102.29118728518229,
        "Mean Anomaly(deg)": 102.53350494262611,
        "RAAN(deg)": 150.00260835685023,
        "Satellite Name": "Starlink Shell 3 1888",
        "Satellite Number": 1888,
        "Semi-Major Axis(m)": 6938478.169268562,
        "Time(s)": 250
    },
    {
        "Altitude(m)": 576237.9361128072,
        "Argument of Periapsis(deg)": -0.010310213690478642,
        "Eccentricity": 0.0,
        "Inclination(deg)": 97.0,
        "Latitude(deg)": 75.1961154258713,
        "Longitude(deg)": -103.53259847832881,
        "Mean Anomaly(deg)": 103.15898114033115,
        "RAAN(deg)": 150.00271269112426,
        "Satellite Name": "Starlink Shell 3 1888",
        "Satellite Number": 1888,
        "Semi-Major Axis(m)": 6938478.169268562,
        "Time(s)": 260
    },
    {
        "Altitude(m)": 576168.381557143,
        "Argument of Periapsis(deg)": -0.010706760370881667,
        "Eccentricity": 0.0,
        "Inclination(deg)": 97.0,
        "Latitude(deg)": 74.6450140410261,
        "Longitude(deg)": -104.69024122695079,
        "Mean Anomaly(deg)": 103.78445733803619,
        "RAAN(deg)": 150.00281702539826,
        "Satellite Name": "Starlink Shell 3 1888",
        "Satellite Number": 1888,
        "Semi-Major Axis(m)": 6938478.169268562,
        "Time(s)": 270
    },
    {
        "Altitude(m)": 576095.9014209262,
        "Argument of Periapsis(deg)": -0.011103307051284692,
        "Eccentricity": 0.0,
        "Inclination(deg)": 97.0,
        "Latitude(deg)": 74.08870688326259,
        "Longitude(deg)": -105.77206859031122,
        "Mean Anomaly(deg)": 104.40993353574117,
        "RAAN(deg)": 150.00292135967229,
        "Satellite Name": "Starlink Shell 3 1888",
        "Satellite Number": 1888,
        "Semi-Major Axis(m)": 6938478.169268562,
        "Time(s)": 280
    },
    {
        "Altitude(m)": 576020.5368834585,
        "Argument of Periapsis(deg)": -0.011499853731687715,
        "Eccentricity": 0.0,
        "Inclination(deg)": 97.0,
        "Latitude(deg)": 73.52771622766848,
        "Longitude(deg)": -106.78515652217996,
        "Mean Anomaly(deg)": 105.03540973344629,
        "RAAN(deg)": 150.00302569394628,
        "Satellite Name": "Starlink Shell 3 1888",
        "Satellite Number": 1888,
        "Semi-Major Axis(m)": 6938478.169268562,
        "Time(s)": 290
    },
    {
        "Altitude(m)": 575942.3307938478,
        "Argument of Periapsis(deg)": -0.011896400412090741,
        "Eccentricity": 0.0,
        "Inclination(deg)": 97.0,
        "Latitude(deg)": 72.96249953863585,
        "Longitude(deg)": -107.735803949736,
        "Mean Anomaly(deg)": 105.66088593115136,
        "RAAN(deg)": 150.00313002822026,
        "Satellite Name": "Starlink Shell 3 1888",
        "Satellite Number": 1888,
        "Semi-Major Axis(m)": 6938478.169268562,
        "Time(s)": 300
    },
    {
        "Altitude(m)": 575861.3276507482,
        "Argument of Periapsis(deg)": -0.012292947092493765,
        "Eccentricity": 0.0,
        "Inclination(deg)": 97.0,
        "Latitude(deg)": 72.39345863316093,
        "Longitude(deg)": -108.62962455645003,
        "Mean Anomaly(deg)": 106.28636212885635,
        "RAAN(deg)": 150.00323436249428,
        "Satellite Name": "Starlink Shell 3 1888",
        "Satellite Number": 1888,
        "Semi-Major Axis(m)": 6938478.169268562,
        "Time(s)": 310
    },
    {
        "Altitude(m)": 575777.5735812978,
        "Argument of Periapsis(deg)": -0.012689493772896788,
        "Eccentricity": 0.0,
        "Inclination(deg)": 97.0,
        "Latitude(deg)": 71.82094743986752,
        "Longitude(deg)": -109.47162729712336,
        "Mean Anomaly(deg)": 106.91183832656141,
        "RAAN(deg)": 150.0033386967683,
        "Satellite Name": "Starlink Shell 3 1888",
        "Satellite Number": 1888,
        "Semi-Major Axis(m)": 6938478.169268562,
        "Time(s)": 320
    },
    {
        "Altitude(m)": 575691.116319262,
        "Argument of Periapsis(deg)": -0.013086040453299813,
        "Eccentricity": 0.0,
        "Inclination(deg)": 97.0,
        "Latitude(deg)": 71.24527857518625,
        "Longitude(deg)": -110.2662876554123,
        "Mean Anomaly(deg)": 107.53731452426645,
        "RAAN(deg)": 150.0034430310423,
        "Satellite Name": "Starlink Shell 3 1888",
        "Satellite Number": 1888,
        "Semi-Major Axis(m)": 6938478.169268562,
        "Time(s)": 330
    },
    {
        "Altitude(m)": 575602.0051823952,
        "Argument of Periapsis(deg)": -0.01348258713370284,
        "Eccentricity": 0.0,
        "Inclination(deg)": 97.0,
        "Latitude(deg)": 70.66672892503225,
        "Longitude(deg)": -111.01761188275192,
        "Mean Anomaly(deg)": 108.16279072197143,
        "RAAN(deg)": 150.0035473653163,
        "Satellite Name": "Starlink Shell 3 1888",
        "Satellite Number": 1888,
        "Semi-Major Axis(m)": 6938478.169268562,
        "Time(s)": 340
    },
    {
        "Altitude(m)": 575510.2910490519,
        "Argument of Periapsis(deg)": -0.013879133814105863,
        "Eccentricity": 0.0,
        "Inclination(deg)": 97.0,
        "Latitude(deg)": 70.08554439091753,
        "Longitude(deg)": -111.72919201318413,
        "Mean Anomaly(deg)": 108.78826691967654,
        "RAAN(deg)": 150.0036516995903,
        "Satellite Name": "Starlink Shell 3 1888",
        "Satellite Number": 1888,
        "Semi-Major Axis(m)": 6938478.169268562,
        "Time(s)": 350
    },
    {
        "Altitude(m)": 575416.0263340002,
        "Argument of Periapsis(deg)": -0.01427568049450889,
        "Eccentricity": 0.0,
        "Inclination(deg)": 97.0,
        "Latitude(deg)": 69.50194393393285,
        "Longitude(deg)": -112.40425400011206,
        "Mean Anomaly(deg)": 109.41374311738159,
        "RAAN(deg)": 150.00375603386433,
        "Satellite Name": "Starlink Shell 3 1888",
        "Satellite Number": 1888,
        "Semi-Major Axis(m)": 6938478.169268562,
        "Time(s)": 360
    },
    {
        "Altitude(m)": 575319.2649635068,
        "Argument of Periapsis(deg)": -0.014672227174911913,
        "Eccentricity": 0.0,
        "Inclination(deg)": 97.0,
        "Latitude(deg)": 68.9161230282627,
        "Longitude(deg)": -113.04570128714278,
        "Mean Anomaly(deg)": 110.03921931508664,
        "RAAN(deg)": 150.00386036813833,
        "Satellite Name": "Starlink Shell 3 1888",
        "Satellite Number": 1888,
        "Semi-Major Axis(m)": 6938478.169268562,
        "Time(s)": 370
    }
]